{
    "links": {
        "self": "http://www.neowsapp.com/rest/v1/neo/3741557?api_key=iIulBulltgU6a56xZRHN4H3l9WmuAYTsLGpBGhQ2"
    },
    "id": "3741557",
    "neo_reference_id": "3741557",
    "name": "(2016 CG29)",
    "designation": "2016 CG29",
    "nasa_jpl_url": "http://ssd.jpl.nasa.gov/sbdb.cgi?sstr=3741557",
    "absolute_magnitude_h": 21.3,
    "estimated_diameter": {
        "kilometers": {
            "estimated_diameter_min": 0.1460679643,
            "estimated_diameter_max": 0.3266178974
        },
        "meters": {
            "estimated_diameter_min": 146.0679642714,
            "estimated_diameter_max": 326.6178974458
        },
        "miles": {
            "estimated_diameter_min": 0.090762397,
            "estimated_diameter_max": 0.2029508896
        },
        "feet": {
            "estimated_diameter_min": 479.2256199,
            "estimated_diameter_max": 1071.581062656
        }
    },
    "is_potentially_hazardous_asteroid": false,
    "close_approach_data": [
        {
            "close_approach_date": "2016-01-26",
            "close_approach_date_full": "2016-Jan-26 05:12",
            "epoch_date_close_approach": 1453785120000,
            "relative_velocity": {
                "kilometers_per_second": "16.3059811156",
                "kilometers_per_hour": "58701.5320160934",
                "miles_per_hour": "36474.8491574443"
            },
            "miss_distance": {
                "astronomical": "0.228591888",
                "lunar": "88.922244432",
                "kilometers": "34196859.54407856",
                "miles": "21248943.194101728"
            },
            "orbiting_body": "Earth"
        },
        {
            "close_approach_date": "2021-02-02",
            "close_approach_date_full": "2021-Feb-02 23:01",
            "epoch_date_close_approach": 1612306860000,
            "relative_velocity": {
                "kilometers_per_second": "22.9356340449",
                "kilometers_per_hour": "82568.2825617059",
                "miles_per_hour": "51304.7197950777"
            },
            "miss_distance": {
                "astronomical": "0.4951136663",
                "lunar": "192.5992161907",
                "kilometers": "74067949.886370781",
                "miles": "46023689.9125315378"
            },
            "orbiting_body": "Earth"
        }
    ],
    "orbital_data": {
        "orbit_id": "13",
        "orbit_determination_date": "2017-04-06 08:28:44",
        "first_observation_date": "2016-02-03",
        "last_observation_date": "2016-02-26",
        "data_arc_in_days": 23,
        "observations_used": 134,
        "orbit_uncertainty": "7",
        "minimum_orbit_intersection": ".227926",
        "jupiter_tisserand_invariant": "3.752",
        "epoch_osculation": "2459000.5",
        "eccentricity": ".405529982146531",
        "semi_major_axis": "1.859901393211371",
        "inclination": "29.12560413314078",
        "ascending_node_longitude": "134.7500564630272",
        "orbital_period": "926.4741502612392",
        "perihelion_distance": "1.105655614428056",
        "perihelion_argument": "308.1869221536115",
        "aphelion_distance": "2.614147171994686",
        "perihelion_time": "2459222.644507063616",
        "mean_anomaly": "273.6813234126912",
        "mean_motion": ".3885699346263361",
        "equinox": "J2000",
        "orbit_class": {
            "orbit_class_type": "AMO",
            "orbit_class_description": "Near-Earth asteroid orbits similar to that of 1221 Amor",
            "orbit_class_range": "1.017 AU < q (perihelion) < 1.3 AU"
        }
    },
    "is_sentry_object": false
}